SL-14 R/B               
1 16792U 86046B   26003.87572498  .00000939  00000+0  10534-3 0  9996
2 16792  82.4829 141.4095 0024532  82.7663 277.6341 14.85515563116788
SL-14 R/B               
1 16882U 86055B   26004.01818904  .00000913  00000+0  10259-3 0  9994
2 16882  82.5198 187.4380 0018804 181.9176 293.8661 14.85558942109764
AJISAI (EGS)            
1 16908U 86061A   26004.16580010 -.00000069  00000+0  20144-3 0  9997
2 16908  50.0103 291.7597 0011318 122.1865  23.8028 12.44514629459968
COSMOS 1812             
1 17295U 87003A   26004.17915844  .00166397  00000+0  83831-3 0  9990
2 17295  82.4860 267.6380 0004578  59.7974 300.3747 15.81173351134198
SL-14 R/B               
1 17567U 87024B   26003.86532550  .00000986  00000+0  10960-3 0  9993
2 17567  82.5287 153.6698 0019518 113.6903 246.6364 14.86054793 78503
COSMOS 1833             
1 17589U 87027A   26004.01689625  .00000353  00000+0  21463-3 0  9992
2 17589  70.9183 101.9494 0023589 300.7809  59.0989 14.13035605  1180
SL-16 R/B               
1 17590U 87027B   26004.17790754  .00000118  00000+0  82481-4 0  9994
2 17590  71.0031  52.4371 0006916 235.9849 124.0618 14.17156456  6200
SL-14 R/B               
1 17912U 87038B   26004.02902064  .00000894  00000+0  10106-3 0  9992
2 17912  82.5013 357.7043 0019903  22.8430 337.3667 14.85288863 69633
COSMOS 1844             
1 17973U 87041A   26003.90816532  .00000168  00000+0  11240-3 0  9997
2 17973  70.8989 170.8143 0028719 122.1206 238.2709 14.14538643994423
SL-14 R/B               
1 18153U 87055B   26004.15173066  .00000783  00000+0  87631-4 0  9990
2 18153  82.4982  49.8642 0019608 223.9527 136.0130 14.85548757 60352
COSMOS 1867             
1 18187U 87060A   26004.02865633  .00000044  00000+0  54031-4 0  9995
2 18187  65.0107 127.7850 0013801 273.4258  86.5248 14.31491004 10685
SL-14 R/B               
1 18749U 88001B   26004.14281634  .00000786  00000+0  88118-4 0  9997
2 18749  82.5127 256.0773 0019608  91.6289 268.7173 14.85451702 32449
