CCSDS_OMM_VERS = 2.0
CREATION_DATE  = 
ORIGINATOR     = 

OBJECT_NAME    = SL-14 R/B
OBJECT_ID      = 1986-046B
CENTER_NAME    = EARTH
REF_FRAME      = TEME
TIME_SYSTEM    = UTC
MEAN_ELEMENT_THEORY = SGP/SGP4

EPOCH          = 2026-01-03T21:01:02.638272
MEAN_MOTION    = 14.85515563
ECCENTRICITY   = .0024532
INCLINATION    = 82.4829
RA_OF_ASC_NODE = 141.4095
ARG_OF_PERICENTER = 82.7663
MEAN_ANOMALY   = 277.6341

EPHEMERIS_TYPE = 0
CLASSIFICATION_TYPE = U
NORAD_CAT_ID   = 16792
ELEMENT_SET_NO = 999
REV_AT_EPOCH   = 11678
BSTAR          = .10534E-3
MEAN_MOTION_DOT = .939E-5
MEAN_MOTION_DDOT = 0

CCSDS_OMM_VERS = 2.0
CREATION_DATE  = 
ORIGINATOR     = 

OBJECT_NAME    = SL-14 R/B
OBJECT_ID      = 1986-055B
CENTER_NAME    = EARTH
REF_FRAME      = TEME
TIME_SYSTEM    = UTC
MEAN_ELEMENT_THEORY = SGP/SGP4

EPOCH          = 2026-01-04T00:26:11.533056
MEAN_MOTION    = 14.85558942
ECCENTRICITY   = .0018804
INCLINATION    = 82.5198
RA_OF_ASC_NODE = 187.4380
ARG_OF_PERICENTER = 181.9176
MEAN_ANOMALY   = 293.8661

EPHEMERIS_TYPE = 0
CLASSIFICATION_TYPE = U
NORAD_CAT_ID   = 16882
ELEMENT_SET_NO = 999
REV_AT_EPOCH   = 10976
BSTAR          = .10259E-3
MEAN_MOTION_DOT = .913E-5
MEAN_MOTION_DDOT = 0

CCSDS_OMM_VERS = 2.0
CREATION_DATE  = 
ORIGINATOR     = 

OBJECT_NAME    = AJISAI (EGS)
OBJECT_ID      = 1986-061A
CENTER_NAME    = EARTH
REF_FRAME      = TEME
TIME_SYSTEM    = UTC
MEAN_ELEMENT_THEORY = SGP/SGP4

EPOCH          = 2026-01-04T03:58:45.128640
MEAN_MOTION    = 12.44514629
ECCENTRICITY   = .0011318
INCLINATION    = 50.0103
RA_OF_ASC_NODE = 291.7597
ARG_OF_PERICENTER = 122.1865
MEAN_ANOMALY   = 23.8028

EPHEMERIS_TYPE = 0
CLASSIFICATION_TYPE = U
NORAD_CAT_ID   = 16908
ELEMENT_SET_NO = 999
REV_AT_EPOCH   = 45996
BSTAR          = .20144E-3
MEAN_MOTION_DOT = -.69E-6
MEAN_MOTION_DDOT = 0

CCSDS_OMM_VERS = 2.0
CREATION_DATE  = 
ORIGINATOR     = 

OBJECT_NAME    = COSMOS 1812
OBJECT_ID      = 1987-003A
CENTER_NAME    = EARTH
REF_FRAME      = TEME
TIME_SYSTEM    = UTC
MEAN_ELEMENT_THEORY = SGP/SGP4

EPOCH          = 2026-01-04T04:17:59.289216
MEAN_MOTION    = 15.81173351
ECCENTRICITY   = .0004578
INCLINATION    = 82.4860
RA_OF_ASC_NODE = 267.6380
ARG_OF_PERICENTER = 59.7974
MEAN_ANOMALY   = 300.3747

EPHEMERIS_TYPE = 0
CLASSIFICATION_TYPE = U
NORAD_CAT_ID   = 17295
ELEMENT_SET_NO = 999
REV_AT_EPOCH   = 13419
BSTAR          = .83831E-3
MEAN_MOTION_DOT = .166397E-2
MEAN_MOTION_DDOT = 0

CCSDS_OMM_VERS = 2.0
CREATION_DATE  = 
ORIGINATOR     = 

OBJECT_NAME    = SL-14 R/B
OBJECT_ID      = 1987-024B
CENTER_NAME    = EARTH
REF_FRAME      = TEME
TIME_SYSTEM    = UTC
MEAN_ELEMENT_THEORY = SGP/SGP4

EPOCH          = 2026-01-03T20:46:04.123200
MEAN_MOTION    = 14.86054793
ECCENTRICITY   = .0019518
INCLINATION    = 82.5287
RA_OF_ASC_NODE = 153.6698
ARG_OF_PERICENTER = 113.6903
MEAN_ANOMALY   = 246.6364

EPHEMERIS_TYPE = 0
CLASSIFICATION_TYPE = U
NORAD_CAT_ID   = 17567
ELEMENT_SET_NO = 999
REV_AT_EPOCH   = 7850
BSTAR          = .1096E-3
MEAN_MOTION_DOT = .986E-5
MEAN_MOTION_DDOT = 0

CCSDS_OMM_VERS = 2.0
CREATION_DATE  = 
ORIGINATOR     = 

OBJECT_NAME    = COSMOS 1833
OBJECT_ID      = 1987-027A
CENTER_NAME    = EARTH
REF_FRAME      = TEME
TIME_SYSTEM    = UTC
MEAN_ELEMENT_THEORY = SGP/SGP4

EPOCH          = 2026-01-04T00:24:19.836000
MEAN_MOTION    = 14.13035605
ECCENTRICITY   = .0023589
INCLINATION    = 70.9183
RA_OF_ASC_NODE = 101.9494
ARG_OF_PERICENTER = 300.7809
MEAN_ANOMALY   = 59.0989

EPHEMERIS_TYPE = 0
CLASSIFICATION_TYPE = U
NORAD_CAT_ID   = 17589
ELEMENT_SET_NO = 999
REV_AT_EPOCH   = 118
BSTAR          = .21463E-3
MEAN_MOTION_DOT = .353E-5
MEAN_MOTION_DDOT = 0

CCSDS_OMM_VERS = 2.0
CREATION_DATE  = 
ORIGINATOR     = 

OBJECT_NAME    = SL-16 R/B
OBJECT_ID      = 1987-027B
CENTER_NAME    = EARTH
REF_FRAME      = TEME
TIME_SYSTEM    = UTC
MEAN_ELEMENT_THEORY = SGP/SGP4

EPOCH          = 2026-01-04T04:16:11.211456
MEAN_MOTION    = 14.17156456
ECCENTRICITY   = .0006916
INCLINATION    = 71.0031
RA_OF_ASC_NODE = 52.4371
ARG_OF_PERICENTER = 235.9849
MEAN_ANOMALY   = 124.0618

EPHEMERIS_TYPE = 0
CLASSIFICATION_TYPE = U
NORAD_CAT_ID   = 17590
ELEMENT_SET_NO = 999
REV_AT_EPOCH   = 620
BSTAR          = .82481E-4
MEAN_MOTION_DOT = .118E-5
MEAN_MOTION_DDOT = 0

CCSDS_OMM_VERS = 2.0
CREATION_DATE  = 
ORIGINATOR     = 

OBJECT_NAME    = SL-14 R/B
OBJECT_ID      = 1987-038B
CENTER_NAME    = EARTH
REF_FRAME      = TEME
TIME_SYSTEM    = UTC
MEAN_ELEMENT_THEORY = SGP/SGP4

EPOCH          = 2026-01-04T00:41:47.383296
MEAN_MOTION    = 14.85288863
ECCENTRICITY   = .0019903
INCLINATION    = 82.5013
RA_OF_ASC_NODE = 357.7043
ARG_OF_PERICENTER = 22.8430
MEAN_ANOMALY   = 337.3667

EPHEMERIS_TYPE = 0
CLASSIFICATION_TYPE = U
NORAD_CAT_ID   = 17912
ELEMENT_SET_NO = 999
REV_AT_EPOCH   = 6963
BSTAR          = .10106E-3
MEAN_MOTION_DOT = .894E-5
MEAN_MOTION_DDOT = 0

CCSDS_OMM_VERS = 2.0
CREATION_DATE  = 
ORIGINATOR     = 

OBJECT_NAME    = COSMOS 1844
OBJECT_ID      = 1987-041A
CENTER_NAME    = EARTH
REF_FRAME      = TEME
TIME_SYSTEM    = UTC
MEAN_ELEMENT_THEORY = SGP/SGP4

EPOCH          = 2026-01-03T21:47:45.483648
MEAN_MOTION    = 14.14538643
ECCENTRICITY   = .0028719
INCLINATION    = 70.8989
RA_OF_ASC_NODE = 170.8143
ARG_OF_PERICENTER = 122.1206
MEAN_ANOMALY   = 238.2709

EPHEMERIS_TYPE = 0
CLASSIFICATION_TYPE = U
NORAD_CAT_ID   = 17973
ELEMENT_SET_NO = 999
REV_AT_EPOCH   = 99442
BSTAR          = .1124E-3
MEAN_MOTION_DOT = .168E-5
MEAN_MOTION_DDOT = 0

CCSDS_OMM_VERS = 2.0
CREATION_DATE  = 
ORIGINATOR     = 

OBJECT_NAME    = SL-14 R/B
OBJECT_ID      = 1987-055B
CENTER_NAME    = EARTH
REF_FRAME      = TEME
TIME_SYSTEM    = UTC
MEAN_ELEMENT_THEORY = SGP/SGP4

EPOCH          = 2026-01-04T03:38:29.529024
MEAN_MOTION    = 14.85548757
ECCENTRICITY   = .0019608
INCLINATION    = 82.4982
RA_OF_ASC_NODE = 49.8642
ARG_OF_PERICENTER = 223.9527
MEAN_ANOMALY   = 136.0130

EPHEMERIS_TYPE = 0
CLASSIFICATION_TYPE = U
NORAD_CAT_ID   = 18153
ELEMENT_SET_NO = 999
REV_AT_EPOCH   = 6035
BSTAR          = .87631E-4
MEAN_MOTION_DOT = .783E-5
MEAN_MOTION_DDOT = 0

CCSDS_OMM_VERS = 2.0
CREATION_DATE  = 
ORIGINATOR     = 

OBJECT_NAME    = COSMOS 1867
OBJECT_ID      = 1987-060A
CENTER_NAME    = EARTH
REF_FRAME      = TEME
TIME_SYSTEM    = UTC
MEAN_ELEMENT_THEORY = SGP/SGP4

EPOCH          = 2026-01-04T00:41:15.906912
MEAN_MOTION    = 14.31491004
ECCENTRICITY   = .0013801
INCLINATION    = 65.0107
RA_OF_ASC_NODE = 127.7850
ARG_OF_PERICENTER = 273.4258
MEAN_ANOMALY   = 86.5248

EPHEMERIS_TYPE = 0
CLASSIFICATION_TYPE = U
NORAD_CAT_ID   = 18187
ELEMENT_SET_NO = 999
REV_AT_EPOCH   = 1068
BSTAR          = .54031E-4
MEAN_MOTION_DOT = .44E-6
MEAN_MOTION_DDOT = 0

CCSDS_OMM_VERS = 2.0
CREATION_DATE  = 
ORIGINATOR     = 

OBJECT_NAME    = SL-14 R/B
OBJECT_ID      = 1988-001B
CENTER_NAME    = EARTH
REF_FRAME      = TEME
TIME_SYSTEM    = UTC
MEAN_ELEMENT_THEORY = SGP/SGP4

EPOCH          = 2026-01-04T03:25:39.331776
MEAN_MOTION    = 14.85451702
ECCENTRICITY   = .0019608
INCLINATION    = 82.5127
RA_OF_ASC_NODE = 256.0773
ARG_OF_PERICENTER = 91.6289
MEAN_ANOMALY   = 268.7173

EPHEMERIS_TYPE = 0
CLASSIFICATION_TYPE = U
NORAD_CAT_ID   = 18749
ELEMENT_SET_NO = 999
REV_AT_EPOCH   = 3244
BSTAR          = .88118E-4
MEAN_MOTION_DOT = .786E-5
MEAN_MOTION_DDOT = 0

